     2.10           N: GPS NAV DATA                         RINEX VERSION / TYPE
CONVBIN 2.4.3                           20180521 133016 UTC PGM / RUN BY / DATE 
log: 2018_05_21_0920.nvs                                    COMMENT             
format: NVS BINR                                            COMMENT             
                                                            END OF HEADER       
22 18  5 21 13 59 44.0 -.399226307869E-03 -.129602995003E-10  .000000000000E+00
     .460000000000E+02 -.391250000000E+02  .513378532394E-08 -.111186887508E+01
    -.189617276192E-05  .738256529439E-02  .983849167824E-05  .515381234741E+04
     .136784000000E+06 -.540167093277E-07 -.163888884797E+01  .130385160446E-06
     .924731229899E+00  .173718750000E+03 -.153958395138E+01 -.839213528041E-08
     .286083345091E-09  .100000000000E+01  .200200000000E+04  .000000000000E+00
     .200000000000E+01  .000000000000E+00 -.176951289177E-07  .460000000000E+02
     .134439990000E+06  .000000000000E+00
 3 18  5 21 13 59 44.0  .745849683881E-04  .716227077646E-11  .000000000000E+00
     .410000000000E+02 -.384062500000E+02  .427446359558E-08  .280003946863E+01
    -.189803540707E-05  .138234044425E-02  .994652509689E-05  .515375996780E+04
     .136784000000E+06  .186264514923E-07 -.157952016812E+01 -.353902578354E-07
     .960642468923E+00  .187781250000E+03  .425857183507E+00 -.789032866386E-08
     .283940398686E-09  .100000000000E+01  .200200000000E+04  .000000000000E+00
     .200000000000E+01  .000000000000E+00  .232830643654E-08  .410000000000E+02
     .134480000000E+06  .000000000000E+00
